STARLINK-3749           
1 52313U 22041BE  26068.79106163 -.00001296  00000+0 -63406-4 0  9990
2 52313  53.2170  88.6670 0001247  85.6294 274.4840 15.08827690215886
DISKSAT D               
1 67221U 25305C   26068.55257179  .00011599  00000+0  76841-3 0  9999
2 67221  45.0023 251.6339 0003712 319.2749  40.7848 15.07416577 12277
